[{"OBJECT_NAME":"STARLINK-5751","OBJECT_ID":"2023-020H","EPOCH":"2026-03-09T22:00:01.999584","MEAN_MOTION":15.10250177,"ECCENTRICITY":0.00017434,"INCLINATION":42.9998,"RA_OF_ASC_NODE":337.1643,"ARG_OF_PERICENTER":301.382,"MEAN_ANOMALY":155.7989,"EPHEMERIS_TYPE":0,"CLASSIFICATION_TYPE":"U","NORAD_CAT_ID":55576,"ELEMENT_SET_NO":999,"REV_AT_EPOCH":573,"BSTAR":0.0021370432,"MEAN_MOTION_DOT":0.00035529,"MEAN_MOTION_DDOT":0},{"OBJECT_NAME":"FENGYUN 1C DEB","OBJECT_ID":"1999-025CYT","EPOCH":"2026-03-07T13:55:54.215040","MEAN_MOTION":14.53584795,"ECCENTRICITY":0.0265155,"INCLINATION":98.2146,"RA_OF_ASC_NODE":114.8135,"ARG_OF_PERICENTER":36.9946,"MEAN_ANOMALY":324.9212,"EPHEMERIS_TYPE":0,"CLASSIFICATION_TYPE":"U","NORAD_CAT_ID":32350,"ELEMENT_SET_NO":999,"REV_AT_EPOCH":98759,"BSTAR":0.0011205,"MEAN_MOTION_DOT":7.432e-5,"MEAN_MOTION_DDOT":0}]
